[{"OBJECT_NAME":"STARLINK-34812","OBJECT_ID":"2025-232X","EPOCH":"2026-03-09T12:14:45.000384","MEAN_MOTION":15.30195578,"ECCENTRICITY":0.00012224,"INCLINATION":53.1585,"RA_OF_ASC_NODE":105.0533,"ARG_OF_PERICENTER":76.6476,"MEAN_ANOMALY":283.4661,"EPHEMERIS_TYPE":0,"CLASSIFICATION_TYPE":"U","NORAD_CAT_ID":66026,"ELEMENT_SET_NO":999,"REV_AT_EPOCH":2339,"BSTAR":0.00090441164,"MEAN_MOTION_DOT":0.00026519,"MEAN_MOTION_DDOT":0},{"OBJECT_NAME":"FENGYUN 1C DEB","OBJECT_ID":"1999-025ETT","EPOCH":"2026-03-07T08:30:03.670560","MEAN_MOTION":15.28888299,"ECCENTRICITY":0.00158464,"INCLINATION":99.1103,"RA_OF_ASC_NODE":112.0072,"ARG_OF_PERICENTER":201.0032,"MEAN_ANOMALY":159.0553,"EPHEMERIS_TYPE":0,"CLASSIFICATION_TYPE":"U","NORAD_CAT_ID":38726,"ELEMENT_SET_NO":999,"REV_AT_EPOCH":71135,"BSTAR":0.013792546,"MEAN_MOTION_DOT":0.00409659,"MEAN_MOTION_DDOT":0}]
